CCSDS_OMM_VERS = 2.0
CREATION_DATE  = 
ORIGINATOR     = 

OBJECT_NAME    = DELTA 1 R/B
OBJECT_ID      = 1989-089B
CENTER_NAME    = EARTH
REF_FRAME      = TEME
TIME_SYSTEM    = UTC
MEAN_ELEMENT_THEORY = SGP/SGP4

EPOCH          = 2025-11-05T04:23:28.061952
MEAN_MOTION    = 14.50523630
ECCENTRICITY   = .00698097
INCLINATION    = 97.0791
RA_OF_ASC_NODE = 171.3665
ARG_OF_PERICENTER = 154.8748
MEAN_ANOMALY   = 205.5873

EPHEMERIS_TYPE = 0
CLASSIFICATION_TYPE = U
NORAD_CAT_ID   = 20323
ELEMENT_SET_NO = 999
REV_AT_EPOCH   = 87768
BSTAR          = .11588967E-3
MEAN_MOTION_DOT = .433E-5
MEAN_MOTION_DDOT = 0

CCSDS_OMM_VERS = 2.0
CREATION_DATE  = 
ORIGINATOR     = 

OBJECT_NAME    = ARIANE 40 R/B
OBJECT_ID      = 1990-005H
CENTER_NAME    = EARTH
REF_FRAME      = TEME
TIME_SYSTEM    = UTC
MEAN_ELEMENT_THEORY = SGP/SGP4

EPOCH          = 2025-11-05T03:24:38.607264
MEAN_MOTION    = 14.39752645
ECCENTRICITY   = .00095073
INCLINATION    = 98.3295
RA_OF_ASC_NODE = 8.3734
ARG_OF_PERICENTER = 213.7497
MEAN_ANOMALY   = 146.3088

EPHEMERIS_TYPE = 0
CLASSIFICATION_TYPE = U
NORAD_CAT_ID   = 20443
ELEMENT_SET_NO = 999
REV_AT_EPOCH   = 87488
BSTAR          = .12423163E-3
MEAN_MOTION_DOT = .347E-5
MEAN_MOTION_DDOT = 0

CCSDS_OMM_VERS = 2.0
CREATION_DATE  = 
ORIGINATOR     = 

OBJECT_NAME    = DELTA 2 R/B(1)
OBJECT_ID      = 1990-008B
CENTER_NAME    = EARTH
REF_FRAME      = TEME
TIME_SYSTEM    = UTC
MEAN_ELEMENT_THEORY = SGP/SGP4

EPOCH          = 2025-11-05T04:03:27.514080
MEAN_MOTION    = 15.41719584
ECCENTRICITY   = .01185289
INCLINATION    = 35.6082
RA_OF_ASC_NODE = 262.5050
ARG_OF_PERICENTER = 196.9914
MEAN_ANOMALY   = 162.6828

EPHEMERIS_TYPE = 0
CLASSIFICATION_TYPE = U
NORAD_CAT_ID   = 20453
ELEMENT_SET_NO = 999
REV_AT_EPOCH   = 90682
BSTAR          = .56129012E-3
MEAN_MOTION_DOT = .31658E-3
MEAN_MOTION_DDOT = 0

CCSDS_OMM_VERS = 2.0
CREATION_DATE  = 
ORIGINATOR     = 

OBJECT_NAME    = COSMOS 2058
OBJECT_ID      = 1990-010A
CENTER_NAME    = EARTH
REF_FRAME      = TEME
TIME_SYSTEM    = UTC
MEAN_ELEMENT_THEORY = SGP/SGP4

EPOCH          = 2025-11-05T02:59:02.644224
MEAN_MOTION    = 15.10037055
ECCENTRICITY   = .0011517
INCLINATION    = 82.4677
RA_OF_ASC_NODE = 170.0321
ARG_OF_PERICENTER = 45.0308
MEAN_ANOMALY   = 315.1853

EPHEMERIS_TYPE = 0
CLASSIFICATION_TYPE = U
NORAD_CAT_ID   = 20465
ELEMENT_SET_NO = 999
REV_AT_EPOCH   = 92343
BSTAR          = .19985916E-3
MEAN_MOTION_DOT = .3282E-4
MEAN_MOTION_DDOT = 0

CCSDS_OMM_VERS = 2.0
CREATION_DATE  = 
ORIGINATOR     = 

OBJECT_NAME    = SL-14 R/B
OBJECT_ID      = 1990-010B
CENTER_NAME    = EARTH
REF_FRAME      = TEME
TIME_SYSTEM    = UTC
MEAN_ELEMENT_THEORY = SGP/SGP4

EPOCH          = 2025-11-05T05:48:30.924576
MEAN_MOTION    = 14.83418381
ECCENTRICITY   = .00196146
INCLINATION    = 82.5051
RA_OF_ASC_NODE = 24.2575
ARG_OF_PERICENTER = 354.5035
MEAN_ANOMALY   = 5.5961

EPHEMERIS_TYPE = 0
CLASSIFICATION_TYPE = U
NORAD_CAT_ID   = 20466
ELEMENT_SET_NO = 999
REV_AT_EPOCH   = 91003
BSTAR          = .67380629E-4
MEAN_MOTION_DOT = .578E-5
MEAN_MOTION_DDOT = 0

CCSDS_OMM_VERS = 2.0
CREATION_DATE  = 
ORIGINATOR     = 

OBJECT_NAME    = SL-14 R/B
OBJECT_ID      = 1990-018B
CENTER_NAME    = EARTH
REF_FRAME      = TEME
TIME_SYSTEM    = UTC
MEAN_ELEMENT_THEORY = SGP/SGP4

EPOCH          = 2025-11-05T03:21:49.324608
MEAN_MOTION    = 14.81991940
ECCENTRICITY   = .00174533
INCLINATION    = 82.5214
RA_OF_ASC_NODE = 339.5117
ARG_OF_PERICENTER = 138.1539
MEAN_ANOMALY   = 222.1013

EPHEMERIS_TYPE = 0
CLASSIFICATION_TYPE = U
NORAD_CAT_ID   = 20511
ELEMENT_SET_NO = 999
REV_AT_EPOCH   = 90413
BSTAR          = .5307846E-4
MEAN_MOTION_DOT = .446E-5
MEAN_MOTION_DDOT = 0

CCSDS_OMM_VERS = 2.0
CREATION_DATE  = 
ORIGINATOR     = 

OBJECT_NAME    = HST
OBJECT_ID      = 1990-037B
CENTER_NAME    = EARTH
REF_FRAME      = TEME
TIME_SYSTEM    = UTC
MEAN_ELEMENT_THEORY = SGP/SGP4

EPOCH          = 2025-11-04T21:39:13.963680
MEAN_MOTION    = 15.27312898
ECCENTRICITY   = .00017923
INCLINATION    = 28.4662
RA_OF_ASC_NODE = 169.8920
ARG_OF_PERICENTER = 162.0286
MEAN_ANOMALY   = 198.0372

EPHEMERIS_TYPE = 0
CLASSIFICATION_TYPE = U
NORAD_CAT_ID   = 20580
ELEMENT_SET_NO = 999
REV_AT_EPOCH   = 75420
BSTAR          = .24372759E-3
MEAN_MOTION_DOT = .6932E-4
MEAN_MOTION_DDOT = 0

CCSDS_OMM_VERS = 2.0
CREATION_DATE  = 
ORIGINATOR     = 

OBJECT_NAME    = SL-16 R/B
OBJECT_ID      = 1990-046B
CENTER_NAME    = EARTH
REF_FRAME      = TEME
TIME_SYSTEM    = UTC
MEAN_ELEMENT_THEORY = SGP/SGP4

EPOCH          = 2025-11-05T03:17:47.334624
MEAN_MOTION    = 14.14992233
ECCENTRICITY   = .00124397
INCLINATION    = 70.9992
RA_OF_ASC_NODE = 199.4887
ARG_OF_PERICENTER = 141.4679
MEAN_ANOMALY   = 218.7334

EPHEMERIS_TYPE = 0
CLASSIFICATION_TYPE = U
NORAD_CAT_ID   = 20625
ELEMENT_SET_NO = 999
REV_AT_EPOCH   = 83077
BSTAR          = -.40215279E-4
MEAN_MOTION_DOT = -.126E-5
MEAN_MOTION_DDOT = 0

CCSDS_OMM_VERS = 2.0
CREATION_DATE  = 
ORIGINATOR     = 

OBJECT_NAME    = COSMOS 2084
OBJECT_ID      = 1990-055A
CENTER_NAME    = EARTH
REF_FRAME      = TEME
TIME_SYSTEM    = UTC
MEAN_ELEMENT_THEORY = SGP/SGP4

EPOCH          = 2025-11-04T16:35:52.172448
MEAN_MOTION    = 15.04667124
ECCENTRICITY   = .0038049
INCLINATION    = 62.7922
RA_OF_ASC_NODE = 41.6031
ARG_OF_PERICENTER = 170.1316
MEAN_ANOMALY   = 190.0540

EPHEMERIS_TYPE = 0
CLASSIFICATION_TYPE = U
NORAD_CAT_ID   = 20663
ELEMENT_SET_NO = 999
REV_AT_EPOCH   = 91750
BSTAR          = .28663836E-3
MEAN_MOTION_DOT = .391E-4
MEAN_MOTION_DDOT = 0

CCSDS_OMM_VERS = 2.0
CREATION_DATE  = 
ORIGINATOR     = 

OBJECT_NAME    = SL-6 R/B(2)
OBJECT_ID      = 1990-055D
CENTER_NAME    = EARTH
REF_FRAME      = TEME
TIME_SYSTEM    = UTC
MEAN_ELEMENT_THEORY = SGP/SGP4

EPOCH          = 2025-11-05T02:36:59.265792
MEAN_MOTION    = 15.02788938
ECCENTRICITY   = .00106837
INCLINATION    = 62.7836
RA_OF_ASC_NODE = 317.2528
ARG_OF_PERICENTER = 275.2352
MEAN_ANOMALY   = 84.7527

EPHEMERIS_TYPE = 0
CLASSIFICATION_TYPE = U
NORAD_CAT_ID   = 20666
ELEMENT_SET_NO = 999
REV_AT_EPOCH   = 91946
BSTAR          = .19452459E-3
MEAN_MOTION_DOT = .2422E-4
MEAN_MOTION_DDOT = 0

CCSDS_OMM_VERS = 2.0
CREATION_DATE  = 
ORIGINATOR     = 

OBJECT_NAME    = SL-8 R/B
OBJECT_ID      = 1990-078B
CENTER_NAME    = EARTH
REF_FRAME      = TEME
TIME_SYSTEM    = UTC
MEAN_ELEMENT_THEORY = SGP/SGP4

EPOCH          = 2025-11-05T04:43:44.348448
MEAN_MOTION    = 14.83940694
ECCENTRICITY   = .03826395
INCLINATION    = 82.9082
RA_OF_ASC_NODE = 2.8508
ARG_OF_PERICENTER = 71.3851
MEAN_ANOMALY   = 292.8510

EPHEMERIS_TYPE = 0
CLASSIFICATION_TYPE = U
NORAD_CAT_ID   = 20775
ELEMENT_SET_NO = 999
REV_AT_EPOCH   = 79080
BSTAR          = .43173635E-3
MEAN_MOTION_DOT = .13996E-3
MEAN_MOTION_DDOT = 0

CCSDS_OMM_VERS = 2.0
CREATION_DATE  = 
ORIGINATOR     = 

OBJECT_NAME    = SL-8 R/B
OBJECT_ID      = 1991-006B
CENTER_NAME    = EARTH
REF_FRAME      = TEME
TIME_SYSTEM    = UTC
MEAN_ELEMENT_THEORY = SGP/SGP4

EPOCH          = 2025-11-05T06:44:55.622976
MEAN_MOTION    = 13.77481697
ECCENTRICITY   = .00232416
INCLINATION    = 82.9403
RA_OF_ASC_NODE = 262.5772
ARG_OF_PERICENTER = 26.9749
MEAN_ANOMALY   = 89.1433

EPHEMERIS_TYPE = 0
CLASSIFICATION_TYPE = U
NORAD_CAT_ID   = 21088
ELEMENT_SET_NO = 999
REV_AT_EPOCH   = 74694
BSTAR          = .12039879E-3
MEAN_MOTION_DOT = .135E-5
MEAN_MOTION_DDOT = 0

