DELTA 1 R/B             
1 20323U 89089B   25309.18296368  .00000433  00000+0  11589-3 0  9992
2 20323  97.0791 171.3665 0069809 154.8748 205.5873 14.50523630877688
ARIANE 40 R/B           
1 20443U 90005H   25309.14211351  .00000347  00000+0  12423-3 0  9992
2 20443  98.3295   8.3734 0009507 213.7497 146.3088 14.39752645874881
DELTA 2 R/B(1)          
1 20453U 90008B   25309.16906845  .00031658  00000+0  56129-3 0  9997
2 20453  35.6082 262.5050 0118528 196.9914 162.6828 15.41719584906827
COSMOS 2058             
1 20465U 90010A   25309.12433616  .00003282  00000+0  19986-3 0  9992
2 20465  82.4677 170.0321 0011517  45.0308 315.1853 15.10037055923436
SL-14 R/B               
1 20466U 90010B   25309.24202459  .00000578  00000+0  67381-4 0  9993
2 20466  82.5051  24.2575 0019614 354.5035   5.5961 14.83418381910032
SL-14 R/B               
1 20511U 90018B   25309.14015422  .00000446  00000+0  53078-4 0  9995
2 20511  82.5214 339.5117 0017453 138.1539 222.1013 14.81991940904136
HST                     
1 20580U 90037B   25308.90224495  .00006932  00000+0  24373-3 0  9998
2 20580  28.4662 169.8920 0001792 162.0286 198.0372 15.27312898754208
SL-16 R/B               
1 20625U 90046B   25309.13735341 -.00000126  00000+0 -40215-4 0  9996
2 20625  70.9992 199.4887 0012439 141.4679 218.7334 14.14992233830771
COSMOS 2084             
1 20663U 90055A   25308.69157607  .00003910  00000+0  28664-3 0  9996
2 20663  62.7922  41.6031 0038049 170.1316 190.0540 15.04667124917502
SL-6 R/B(2)             
1 20666U 90055D   25309.10901928  .00002422  00000+0  19452-3 0  9991
2 20666  62.7836 317.2528 0010683 275.2352  84.7527 15.02788938919469
SL-8 R/B                
1 20775U 90078B   25309.19704107  .00013996  00000+0  43174-3 0  9992
2 20775  82.9082   2.8508 0382639  71.3851 292.8510 14.83940694790800
SL-8 R/B                
1 21088U 91006B   25309.28119934  .00000135  00000+0  12040-3 0  9999
2 21088  82.9403 262.5772 0023241  26.9749  89.1433 13.77481697746948
